STARLINK-31283          
1 59174U 24044Y   24101.25001157 -.00098150  00000+0 -23700-2 0  9997
2 59174  43.0012  83.8777 0001443 267.4038 177.5467 15.40733347  6875
STARLINK-31439          
1 59178U 24045A   24101.13149202  .00015316  00000+0  37295-3 0  9999
2 59178  43.0001 113.3218 0001660 261.5912  98.4756 15.40717586  5916
STARLINK-31410          
1 59179U 24045B   24100.45184932 -.00002561  00000+0 -54086-4 0  9991
2 59179  42.9991 116.8153 0000769 237.3542 122.7240 15.40689450  5814
STARLINK-31395          
1 59180U 24045C   24101.15377344  .00001471  00000+0  42485-4 0  9999
2 59180  43.0009 112.6215 0001344 261.5834  98.4870 15.40684551  5921
STARLINK-31486          
1 59181U 24045D   24100.73804245  .00000245  00000+0  13128-4 0  9998
2 59181  43.0038 115.5302 0001079 258.3347 101.7389 15.40705661  5852
STARLINK-31411          
1 59182U 24045E   24101.18512210  .00005020  00000+0  12732-3 0  9992
2 59182  43.0003 112.8622 0000738 243.4357 116.6423 15.40708051  5925
STARLINK-31347          
1 59183U 24045F   24101.13563812 -.00152614  00000+0 -37007-2 0  9997
2 59183  42.9994 111.5902 0001518 293.1847  66.8850 15.40852667  5959
STARLINK-31382          
1 59184U 24045G   24101.16047448  .00007274  00000+0  18104-3 0  9990
2 59184  42.9973 112.6749 0000247 308.8236  51.2598 15.40729190  5920
STARLINK-31394          
1 59185U 24045H   24100.91667824  .00100584  00000+0  23870-2 0  9992
2 59185  42.9996 113.8955 0001367 273.7445 247.0395 15.40656074  5991
STARLINK-31403          
1 59186U 24045J   24101.25001157  .00101261  00000+0  19429-2 0  9990
2 59186  42.9993 111.8045 0001808 280.8887   1.6582 15.46931331  5840
STARLINK-31514          
1 59187U 24045K   24101.16271784  .00007730  00000+0  19207-3 0  9997
2 59187  42.9994 112.6891 0001547 242.9769 117.0930 15.40709390  5928
STARLINK-31478          
1 59188U 24045L   24101.25001157 -.00027012  00000+0 -64174-3 0  9993
2 59188  42.9996 111.9459 0001133 265.5229 318.8192 15.40696498  5932
STARLINK-31498          
1 59189U 24045M   24100.91667824  .00016152  00000+0  39331-3 0  9993
2 59189  42.9995 113.7733 0001445 265.5164 305.1176 15.40683697  5995
STARLINK-31563          
1 59190U 24045N   24101.11578560  .00076773  00000+0  18221-2 0  9995
2 59190  42.9993 113.2007 0001943 213.3113 146.7621 15.40775229  5911
STARLINK-31551          
1 59191U 24045P   24100.72907865  .00007017  00000+0  17512-3 0  9994
2 59191  43.0012 115.4596 0002403 238.0377 122.0246 15.40694837  5859
STARLINK-31536          
1 59192U 24045Q   24101.25001157 -.00121922  00000+0 -29501-2 0  9997
2 59192  42.9997 111.5191 0001484 274.2437 124.1993 15.40782537  5942
STARLINK-31548          
1 59193U 24045R   24101.15599782  .00001195  00000+0  35864-4 0  9991
2 59193  42.9997 112.6384 0000833 315.8704  44.2086 15.40705890  5925
STARLINK-31542          
1 59194U 24045S   24101.05994700  .00003226  00000+0  84442-4 0  9993
2 59194  43.0016 113.6416 0001187 121.7620 238.3352 15.40707698  5909
STARLINK-31554          
1 59195U 24045T   24100.91667824  .00042777  00000+0  10256-2 0  9996
2 59195  42.9997 113.9228 0001166 262.5462 245.8023 15.40699199  5998
STARLINK-31558          
1 59196U 24045U   24100.73356470  .00002669  00000+0  71113-4 0  9996
2 59196  43.0031 115.4911 0000606 225.0359 135.0448 15.40701180  5864
STARLINK-31275          
1 59197U 24045V   24101.15823427  .00003297  00000+0  86108-4 0  9993
2 59197  42.9995 112.6535 0000666 260.8065  99.2716 15.40715686  5922
STARLINK-31590          
1 59198U 24045W   24101.25001157 -.00068708  00000+0 -16486-2 0  9993
2 59198  42.9994 111.8840 0000971 256.7039 352.4398 15.40769197  5933
STARLINK-31567          
1 59199U 24045X   24100.46080715  .00003318  00000+0  86652-4 0  9991
2 59199  43.0005 116.8802 0001114 252.5074 107.5661 15.40702443  5815
STARLINK-31503          
1 59200U 24045Y   24101.03977163  .00014297  00000+0  34843-3 0  9992
2 59200  42.9992 113.4854 0000527 246.4130 113.6671 15.40738016  5907
STARLINK-31603          
1 59201U 24046A   24101.21712381  .00008943  00000+0  20980-3 0  9991
2 59201  53.1595 173.6494 0001802 103.4708 256.6499 15.42863444  5686
STARLINK-31602          
1 59202U 24046B   24100.93152831  .00004460  00000+0  91126-4 0  9999
2 59202  53.1598 174.7120 0001354  79.2763 280.8398 15.48347049  5873
STARLINK-31577          
1 59203U 24046C   24100.91667824 -.00048920  00000+0 -10966-2 0  9993
2 59203  53.1593 174.9161 0002078  67.0788 142.5124 15.42834510  5758
STARLINK-31522          
1 59204U 24046D   24100.50422241  .00000057  00000+0  10593-4 0  9996
2 59204  53.1580 177.0248 0000997  91.2162 268.8959 15.42838932  5578
STARLINK-31586          
1 59205U 24046E   24101.06429287 -.00373719  00000+0 -86767-2 0  9990
2 59205  53.1591 174.1162 0000421  78.1454 281.9599 15.43258651  5687
STARLINK-31247          
1 59206U 24046F   24100.47830975  .00002557  00000+0  55807-4 0  9995
2 59206  53.1590 176.8587 0001407  90.9552 269.1618 15.48335008  5804
STARLINK-31591          
1 59207U 24046G   24100.49496631 -.00007729  00000+0 -16457-3 0  9990
2 59207  53.1588 176.9629 0001581  68.2004 291.9170 15.42819527  5806
STARLINK-31576          
1 59208U 24046H   24100.49959649 -.00010556  00000+0 -22832-3 0  9990
2 59208  53.1587 176.9938 0001653  69.3807 290.7377 15.42810055  5805
STARLINK-31601          
1 59209U 24046J   24101.25001157  .00001006  00000+0  31913-4 0  9997
2 59209  53.1593 173.1849 0000870  86.8096 250.5829 15.42834868  5744
STARLINK-31520          
1 59210U 24046K   24100.92876005  .00008773  00000+0  17116-3 0  9990
2 59210  53.1600 174.6933 0001364  91.6674 268.4491 15.48355094  5658
STARLINK-31496          
1 59211U 24046L   24100.92841737  .00002444  00000+0  53681-4 0  9992
2 59211  53.1592 174.6889 0001795  76.2219 283.8990 15.48343545  5867
STARLINK-31492          
1 59212U 24046M   24100.60533825  .00025054  00000+0  47293-3 0  9997
2 59212  53.1591 176.2285 0001350  80.6827 279.4334 15.48330687  5817
STARLINK-31517          
1 59213U 24046N   24100.91667824 -.00027595  00000+0 -61292-3 0  9998
2 59213  53.1593 174.8656 0001397  90.1212 143.3347 15.42829731  5765
STARLINK-31604          
1 59214U 24046P   24101.18555272  .00014845  00000+0  28343-3 0  9994
2 59214  53.1614 173.4523 0001247  89.8844 270.2308 15.48383154  5697
STARLINK-31434          
1 59215U 24046Q   24101.20783382  .00004999  00000+0  12142-3 0  9992
2 59215  53.1605 173.5856 0000765 157.8093 202.2946 15.42860996  5796
STARLINK-31417          
1 59216U 24046R   24100.42590568 -.00001084  00000+0 -15048-4 0  9991
2 59216  53.1603 177.2389 0001759  95.6321 264.4886 15.42797168  5663
STARLINK-31499          
1 59217U 24046S   24101.25001157 -.01380492  00000+0 -32820-1 0  9993
2 59217  53.1592 173.1336 0001275  89.1872 273.3303 15.43890558  5739
STARLINK-31421          
1 59218U 24046T   24101.25001157  .00011280  00000+0  26235-3 0  9992
2 59218  53.1595 173.2313 0001416 103.6187 209.8789 15.42834307  5806
STARLINK-31518          
1 59219U 24046U   24101.19825710 -.00005262  00000+0 -10896-3 0  9996
2 59219  53.1589 173.5291 0002362  97.4118 262.7157 15.42833888  5690
STARLINK-31523          
1 59220U 24046V   24101.18350297  .00002086  00000+0  47038-4 0  9998
2 59220  53.1596 173.4363 0001607  63.1956 296.9217 15.48337927  5684
STARLINK-31516          
1 59221U 24046W   24100.91667824 -.00003312  00000+0 -65096-4 0  9995
2 59221  53.1594 174.7582 0001196  83.6945 203.0681 15.42848544  5644
STARLINK-31490          
1 59222U 24046X   24100.92426439  .00005368  00000+0  10801-3 0  9996
2 59222  53.1622 174.6619 0001939  94.2956 265.8275 15.48347995  5647
STARLINK-31420          
1 59223U 24046Y   24100.47277317  .00004775  00000+0  97014-4 0  9999
2 59223  53.1595 176.8202 0001558  75.7484 284.3698 15.48337076  5796
STARLINK-31304          
1 59231U 24049A   24100.88396475  .00014324  00000+0  34898-3 0  9994
2 59231  42.9991 167.1756 0001762 260.8052  99.2605 15.40747447  5085
STARLINK-31305          
1 59232U 24049B   24100.46849034  .00000948  00000+0  23199-4 0  9993
2 59232  43.0000 169.2129 0001338 276.7795  83.2912 15.48909053  5035
STARLINK-31459          
1 59233U 24049C   24100.46883134  .00009979  00000+0  18622-3 0  9990
2 59233  42.9994 169.2148 0001207 265.4024  94.6698 15.48916436  5032
STARLINK-31438          
1 59234U 24049D   24100.91667824  .00024128  00000+0  58440-3 0  9992
2 59234  42.9995 166.8367 0001601 292.2311 311.6788 15.40628851  5096
STARLINK-31467          
1 59235U 24049E   24101.17762365 -.00449041  00000+0 -88508-2 0  9992
2 59235  43.0004 165.0750 0001986 275.2503  84.8130 15.48061184  5208
STARLINK-31444          
1 59236U 24049F   24101.25001157 -.00002083  00000+0 -31589-4 0  9997
2 59236  42.9995 162.3859 0001787 268.4001 330.7170 15.48929672  5170
STARLINK-31505          
1 59237U 24049G   24100.91667824 -.00179789  00000+0 -43881-2 0  9993
2 59237  42.9996 166.8956 0001487 273.0217 305.9403 15.40772555  5167
STARLINK-31494          
1 59238U 24049H   24101.25001157 -.00033120  00000+0 -78851-3 0  9997
2 59238  42.9991 164.7951 0001313 291.3108  53.2934 15.40719845  5092
STARLINK-31303          
1 59239U 24049J   24100.91667824 -.00143368  00000+0 -34832-2 0  9995
2 59239  42.9997 165.9119 0001717 264.0970 352.9827 15.40754258  5165
STARLINK-31408          
1 59240U 24049K   24101.17575248  .00007588  00000+0  14305-3 0  9999
2 59240  42.9981 165.0555 0001085 264.2797  95.7939 15.48926025  5136
STARLINK-31427          
1 59241U 24049L   24100.91667824 -.00010014  00000+0 -23270-3 0  9994
2 59241  43.0003 165.3625 0001503 286.4340 194.5233 15.40707793  5169
STARLINK-31423          
1 59242U 24049M   24101.17472172  .00006374  00000+0  12114-3 0  9991
2 59242  42.9994 165.0500 0001603 256.6202 103.4479 15.48929740  5193
